[{"OBJECT_NAME":"SAOCOM 1B","OBJECT_ID":"2020-059A","EPOCH":"2026-03-21T14:32:45.674016","MEAN_MOTION":14.82147593,"ECCENTRICITY":0.00014634,"INCLINATION":97.8891,"RA_OF_ASC_NODE":267.7083,"ARG_OF_PERICENTER":89.483,"MEAN_ANOMALY":270.6551,"EPHEMERIS_TYPE":0,"CLASSIFICATION_TYPE":"U","NORAD_CAT_ID":46265,"ELEMENT_SET_NO":999,"REV_AT_EPOCH":30051,"BSTAR":6.4964406e-5,"MEAN_MOTION_DOT":4.65e-6,"MEAN_MOTION_DDOT":0},{"OBJECT_NAME":"CSS (TIANHE)","OBJECT_ID":"2021-035A","EPOCH":"2026-03-21T13:14:21.613056","MEAN_MOTION":15.61263554,"ECCENTRICITY":0.00054317,"INCLINATION":41.4661,"RA_OF_ASC_NODE":135.9532,"ARG_OF_PERICENTER":348.5406,"MEAN_ANOMALY":11.5308,"EPHEMERIS_TYPE":0,"CLASSIFICATION_TYPE":"U","NORAD_CAT_ID":48274,"ELEMENT_SET_NO":999,"REV_AT_EPOCH":27946,"BSTAR":0.00033070013,"MEAN_MOTION_DOT":0.00028655,"MEAN_MOTION_DDOT":0},{"OBJECT_NAME":"COSMOS 2550","OBJECT_ID":"2021-056A","EPOCH":"2026-03-20T16:01:39.963360","MEAN_MOTION":15.33831857,"ECCENTRICITY":0.00081995,"INCLINATION":67.1449,"RA_OF_ASC_NODE":7.6743,"ARG_OF_PERICENTER":268.9235,"MEAN_ANOMALY":91.098,"EPHEMERIS_TYPE":0,"CLASSIFICATION_TYPE":"U","NORAD_CAT_ID":48865,"ELEMENT_SET_NO":999,"REV_AT_EPOCH":26514,"BSTAR":1.25924e-7,"MEAN_MOTION_DOT":-1.88e-6,"MEAN_MOTION_DDOT":0},{"OBJECT_NAME":"CZ-2C R/B","OBJECT_ID":"2022-058K","EPOCH":"2026-03-21T11:13:02.659296","MEAN_MOTION":15.55045954,"ECCENTRICITY":0.00418009,"INCLINATION":50.1873,"RA_OF_ASC_NODE":257.6646,"ARG_OF_PERICENTER":251.0748,"MEAN_ANOMALY":108.5689,"EPHEMERIS_TYPE":0,"CLASSIFICATION_TYPE":"U","NORAD_CAT_ID":52794,"ELEMENT_SET_NO":999,"REV_AT_EPOCH":21196,"BSTAR":0.00068162942,"MEAN_MOTION_DOT":0.00048358,"MEAN_MOTION_DDOT":0},{"OBJECT_NAME":"CZ-2C R/B","OBJECT_ID":"2022-132E","EPOCH":"2026-03-21T12:58:30.704160","MEAN_MOTION":15.6290536,"ECCENTRICITY":0.00192212,"INCLINATION":97.2959,"RA_OF_ASC_NODE":84.2267,"ARG_OF_PERICENTER":53.5122,"MEAN_ANOMALY":306.7904,"EPHEMERIS_TYPE":0,"CLASSIFICATION_TYPE":"U","NORAD_CAT_ID":54039,"ELEMENT_SET_NO":999,"REV_AT_EPOCH":19222,"BSTAR":0.0006722597,"MEAN_MOTION_DOT":0.00061506,"MEAN_MOTION_DDOT":0},{"OBJECT_NAME":"GSLV R/B","OBJECT_ID":"2022-138AN","EPOCH":"2026-03-21T11:41:23.906400","MEAN_MOTION":14.96848668,"ECCENTRICITY":0.00239867,"INCLINATION":87.3867,"RA_OF_ASC_NODE":162.4134,"ARG_OF_PERICENTER":107.4092,"MEAN_ANOMALY":252.9765,"EPHEMERIS_TYPE":0,"CLASSIFICATION_TYPE":"U","NORAD_CAT_ID":54149,"ELEMENT_SET_NO":999,"REV_AT_EPOCH":18569,"BSTAR":0.00029737967,"MEAN_MOTION_DOT":3.455e-5,"MEAN_MOTION_DDOT":0},{"OBJECT_NAME":"XRISM","OBJECT_ID":"2023-137A","EPOCH":"2026-03-21T01:32:56.719968","MEAN_MOTION":15.11617978,"ECCENTRICITY":0.00079528,"INCLINATION":31.0013,"RA_OF_ASC_NODE":210.0811,"ARG_OF_PERICENTER":153.6143,"MEAN_ANOMALY":206.4902,"EPHEMERIS_TYPE":0,"CLASSIFICATION_TYPE":"U","NORAD_CAT_ID":57800,"ELEMENT_SET_NO":999,"REV_AT_EPOCH":13951,"BSTAR":0.00030304703,"MEAN_MOTION_DOT":5.377e-5,"MEAN_MOTION_DDOT":0},{"OBJECT_NAME":"ACS3","OBJECT_ID":"2024-077B","EPOCH":"2026-03-21T14:12:53.180352","MEAN_MOTION":13.90147295,"ECCENTRICITY":0.00694136,"INCLINATION":97.2007,"RA_OF_ASC_NODE":19.0296,"ARG_OF_PERICENTER":48.8103,"MEAN_ANOMALY":311.9019,"EPHEMERIS_TYPE":0,"CLASSIFICATION_TYPE":"U","NORAD_CAT_ID":59588,"ELEMENT_SET_NO":999,"REV_AT_EPOCH":9585,"BSTAR":0.02287682,"MEAN_MOTION_DOT":0.00028903,"MEAN_MOTION_DDOT":0},{"OBJECT_NAME":"SZ-21 MODULE","OBJECT_ID":"2025-246C","EPOCH":"2026-03-21T11:12:15.021792","MEAN_MOTION":15.69416667,"ECCENTRICITY":3.959e-5,"INCLINATION":41.4731,"RA_OF_ASC_NODE":130.8135,"ARG_OF_PERICENTER":237.226,"MEAN_ANOMALY":122.8544,"EPHEMERIS_TYPE":0,"CLASSIFICATION_TYPE":"U","NORAD_CAT_ID":66515,"ELEMENT_SET_NO":999,"REV_AT_EPOCH":1992,"BSTAR":0.0003837318,"MEAN_MOTION_DOT":0.00046337,"MEAN_MOTION_DDOT":0}]
